LEMUR-1                 
1 40044U 14033AL  23011.73603445  .00002955  00000+0  43088-3 0  9998
2 40044  97.6566 194.1352 0057148 203.1501 156.7133 14.75407116460186
LEMUR-2-XIAOQING        
1 41871U 16062C   23011.82625506  .00090211  00000+0  14098-2 0  9993
2 41871  51.6306  50.0693 0004918 355.3252   4.7691 15.53015786342135
LEMUR-2-SOKOLSKY        
1 41872U 16062D   23011.49080521  .00096070  00000+0  15031-2 0  9996
2 41872  51.6725  62.6328 0002093  24.6622 335.4469 15.52964590342046
LEMUR-2-ANUBHAVTHAKUR   
1 41873U 16062E   23011.56442670  .00019744  00000+0  64888-3 0  9990
2 41873  51.6800 122.4242 0006960 298.9063  61.1220 15.31523358341185
LEMUR-2-WINGO           
1 41874U 16062F   23011.68514714  .00084604  00000+0  14484-2 0  9996
2 41874  51.6432  63.5471 0006963 274.3406  85.6787 15.50484172341953
LEMUR-2-JOBANPUTRA      
1 41991U 17008AV  23011.42485375  .00049465  00000+0  11802-2 0  9996
2 41991  97.2329  74.6187 0004730 197.1022 163.0067 15.41380916328102
LEMUR-2-SPIRE-MINIONS   
1 41992U 17008AW  23011.88267494  .00064293  00000+0  12029-2 0  9995
2 41992  97.2404  80.9566 0003535 180.9009 179.2236 15.48490351328508
LEMUR-2-SATCHMO         
1 41993U 17008AX  23011.60198289  .00036311  00000+0  94045-3 0  9990
2 41993  97.2313  74.9075 0004582 198.1435 161.9648 15.38949476328133
LEMUR-2-SMITA-SHARAD    
1 41994U 17008AY  23011.87906619  .00058201  00000+0  11112-2 0  9999
2 41994  97.2408  80.6817 0003484 177.3123 182.8147 15.47932867328491
LEMUR-2-RDEATON         
1 41995U 17008AZ  23011.61374273  .00032102  00000+0  85927-3 0  9995
2 41995  97.2377  75.1319 0005148 212.2399 147.8532 15.37957219328818
LEMUR-2-TACHIKOMA       
1 41996U 17008BA  23011.93097451  .00071202  00000+0  14351-2 0  9997
2 41996  97.2467  80.8694 0004257 200.5430 159.5649 15.46299898328365
LEMUR-2-NOGUECORREIG    
1 41997U 17008BB  23011.89340961  .00071690  00000+0  13342-2 0  9990
2 41997  97.2419  81.5281 0004014 201.8398 158.2682 15.48610216328514
LEMUR-2-MIA-GRACE       
1 41998U 17008BC  23012.14737410  .00031223  00000+0  83612-3 0  9995
2 41998  97.2343  75.1682 0004987 212.8249 147.2687 15.37950174328118
LEMUR-2-ANGELA          
1 42752U 17019B   23012.05751582  .00079255  00000+0  10326-2 0  9990
2 42752  51.6282 290.5513 0007596 108.9539 251.2277 15.57996274313494
LEMUR-2-ROBMOORE        
1 42754U 17019D   23012.05113007  .00049495  00000+0  74825-3 0  9994
2 42754  51.6291 294.2058 0006746 110.6908 249.4806 15.54180888313420
LEMUR-2-SHAINAJOHL      
1 42771U 17036G   23011.87856868  .00041747  00000+0  10917-2 0  9993
2 42771  97.1754  52.9913 0008017 293.5672  66.4731 15.38601160308936
LEMUR-2-XUENITERENCE    
1 42772U 17036H   23011.55815072  .00060723  00000+0  14019-2 0  9993
2 42772  97.1613  53.1432 0006804 287.0895  72.9607 15.42307769308967
LEMUR-2-LUCYBRYCE       
1 42773U 17036J   23011.89108894  .00035863  00000+0  10314-2 0  9999
2 42773  97.1791  52.6777 0008119 296.2309  63.8100 15.35677304308867
LEMUR-2-KUNGFOO         
1 42774U 17036K   23011.89667590  .00042428  00000+0  10925-2 0  9996
2 42774  97.1743  53.5324 0007330 289.7645  70.2810 15.39078008308968
LEMUR-2-LYNSEY-SYMO     
1 42779U 17036Q   23011.85734545  .00048539  00000+0  10862-2 0  9991
2 42779  97.1776  58.9241 0005709 282.8697  77.1914 15.43305215309268
LEMUR-2-LISASAURUS      
1 42780U 17036R   23011.10773557  .00046609  00000+0  11570-2 0  9990
2 42780  97.1746  54.0353 0006414 304.0684  55.9953 15.40182799308897
LEMUR-2-SAM-AMELIA      
1 42781U 17036S   23011.35892980  .00019551  00000+0  60236-3 0  9990
2 42781  97.1808  54.2074 0007807 303.6201  56.4297 15.33625566308899
LEMUR-2-MCPEAKE         
1 42782U 17036T   23011.83634439  .00039112  00000+0  10005-2 0  9990
2 42782  97.1761  56.4946 0006268 293.8615  66.1974 15.39305151309127
LEMUR-2-GREENBERG       
1 42837U 17042N   23011.80441817  .00006812  00000+0  62796-3 0  9997
2 42837  97.4038 222.8543 0013183  25.6856 334.5018 14.94915074299380
LEMUR-2-ANDIS           
1 42838U 17042P   23011.86456167  .00007395  00000+0  68050-3 0  9994
2 42838  97.4019 222.8277 0013207  24.8828 335.3027 14.94954381299395
LEMUR-2-MONSON          
1 42839U 17042Q   23011.84933133  .00006447  00000+0  59805-3 0  9991
2 42839  97.4030 222.5430 0012796  24.6444 335.5386 14.94689271299361
LEMUR-2-FURIAUS         
1 42840U 17042R   23011.80836903  .00007878  00000+0  73467-3 0  9995
2 42840  97.4071 222.8514 0013388  26.0308 334.1583 14.94410334299352
LEMUR-2-PETERG          
1 42841U 17042S   23011.86596249  .00008449  00000+0  78129-3 0  9993
2 42841  97.4087 224.1351 0012672  22.0899 338.0866 14.94728520299435
LEMUR-2-DEMBITZ         
1 42842U 17042T   23011.80133627  .00006758  00000+0  61996-3 0  9990
2 42842  97.4062 223.9724 0012778  22.8478 337.3309 14.95111662299436
LEMUR-2-ZACHARY         
1 42845U 17042W   23011.83113726  .00007815  00000+0  69822-3 0  9995
2 42845  97.3941 223.1274 0012741  20.2295 339.9429 14.96102432299498
LEMUR-2-MCCAFFERTY      
1 43123U 18004N   23011.47887889  .00090310  00000+0  16014-2 0  9998
2 43123  97.3584  97.6462 0005393 321.5524  38.5342 15.49912005278612
LEMUR-2-PETERWEBSTER    
1 43124U 18004P   23011.66420889  .00062529  00000+0  11809-2 0  9991
2 43124  97.3577  97.2706 0004910 324.6551  35.4373 15.48222527278601
LEMUR-2-BROWNCOW        
1 43125U 18004Q   23011.65130745  .00098482  00000+0  15731-2 0  9995
2 43125  97.3651  99.8839 0004789 317.0665  43.0214 15.52826797278744
LEMUR-2-DAVEWILSON      
1 43126U 18004R   23012.01321116  .00109730  00000+0  16410-2 0  9995
2 43126  97.3630 100.1921 0004879 305.8272  54.2528 15.54609090278805
LEMUR-2-MARSHALL        
1 43165U 18010C   23011.55221867  .00036815  00000+0  98774-3 0  9992
2 43165  82.9090 227.4424 0021547 312.7589  47.1843 15.37552451276356
LEMUR-2-TALLHAMN-ATC    
1 43167U 18010E   23011.89190447  .00018992  00000+0  60621-3 0  9996
2 43167  82.9130 234.4588 0018568 339.2545  20.7941 15.32192388275952
LEMUR-2-JIN-LUEN        
1 43182U 18014C   23011.67126679  .00008404  00000+0  66188-3 0  9990
2 43182  97.6307 276.5573 0018806 338.4493  21.5937 15.00903221270104
LEMUR-2-URAMCHANSOL     
1 43183U 18014D   23011.53463566  .00010505  00000+0  81830-3 0  9991
2 43183  97.6346 276.7120 0017922 322.9518  37.0468 15.01271737270092
LEMUR-2-KADI            
1 43184U 18014E   23011.50822943  .00008523  00000+0  67932-3 0  9991
2 43184  97.6318 276.4623 0012474 301.1157  58.8843 15.00519602270073
LEMUR-2-THENICKMOLO     
1 43185U 18014F   23011.97728997  .00009180  00000+0  72547-3 0  9995
2 43185  97.6296 277.2556 0006353 301.5101  58.5502 15.00871562270159
LEMUR-2-VU              
1 43558U 18046E   23011.81720147  .00337529  00000+0  17020-2 0  9991
2 43558  51.6247 202.6618 0004329 187.8775 172.2159 15.80119091252010
LEMUR-2-YUASA           
1 43560U 18046G   23011.58151541  .00990928  49400-3  17999-2 0  9998
2 43560  51.6302 198.8388 0016376 242.8318 117.1023 16.00656217252045
LEMUR-2-TOMHENDERSON    
1 43561U 18046H   23011.96986157  .00163489  00000+0  11187-2 0  9996
2 43561  51.6353 209.7280 0002178 121.1041 239.0172 15.73737474251493
LEMUR-2-ZUPANSKI        
1 43695U 18088F   23011.71137971  .00042143  00000+0  11803-2 0  9993
2 43695  85.0273 173.6450 0012056  78.1798 282.0803 15.36374696231788
LEMUR-2-CHANUSIAK       
1 43697U 18088H   23011.86067776  .00045618  00000+0  11850-2 0  9998
2 43697  85.0327 173.4106 0011882  58.8893 301.3522 15.38696208231953
LEMUR-2-ORZULAK         
1 43731U 18096N   23011.48224959  .00455383  00000+0  21819-2 0  9992
2 43731  97.3493 107.3166 0012834 322.5486  37.4887 15.81461535230570
LEMUR-2-KOBYSZCZE       
1 43732U 18096P   23012.02183334  .00412592  00000+0  20411-2 0  9997
2 43732  97.3510 108.4420 0011819 325.7474  34.3031 15.80884575230681
LEMUR-2-DULY            
1 43745U 18096AC  23011.22749177  .00212007  00000+0  17118-2 0  9994
2 43745  97.3508 106.2922 0009991 342.1226  17.9683 15.70154880230498
LEMUR-2-CHRISTINAHOLT   
1 43882U 18111G   23011.47321540  .00009773  00000+0  75634-3 0  9993
2 43882  97.6668 281.0849 0009094 315.1768  44.8721 15.01635221220954
LEMUR-2-TINYKEV         
1 43883U 18111H   23012.02932275  .00015117  00000+0  11486-2 0  9992
2 43883  97.6424 281.7349 0010546 310.1981  49.8320 15.02215328219055
LEMUR-2-REMY-COLTON     
1 43884U 18111J   23012.11573124  .00010467  00000+0  80307-3 0  9999
2 43884  97.6528 282.4825 0001737  27.8511 332.2806 15.01977920219095
LEMUR-2-GUSTAVO         
1 43885U 18111K   23011.46486800  .00010766  00000+0  83271-3 0  9996
2 43885  97.6581 281.4025 0014444 317.5968  42.4139 15.01583722220960
LEMUR-2-ZO              
1 43886U 18111L   23011.64808286  .00010216  00000+0  79106-3 0  9995
2 43886  97.6413 281.8417 0014657 341.2552  18.8130 15.01551209221002
LEMUR-2-NATALIEMURRAY   
1 43887U 18111M   23011.65643537  .00009841  00000+0  75820-3 0  9994
2 43887  97.6563 282.2560 0008979 281.3200  78.7016 15.01807009221029
LEMUR-2-SARAHBETTYBOO   
1 43888U 18111N   23011.47047291  .00010805  00000+0  82591-3 0  9995
2 43888  97.6901 282.6215 0014202  14.4134 345.7493 15.02035672221008
LEMUR-2-DAISY-HARPER    
1 43889U 18111P   23011.26607028  .00010313  00000+0  78900-3 0  9996
2 43889  97.6813 282.5561 0012506  15.9687 344.1930 15.02032474220979
LEMUR-2-JOHANLORAN      
1 44084U 19018G   23012.13699672  .00163198  00000+0  20397-2 0  9990
2 44084  97.2873  79.7277 0005430  68.0791 292.1043 15.59267893210975
LEMUR-2-BEAUDACIOUS     
1 44085U 19018H   23011.90095849  .00058169  00000+0  13123-2 0  9991
2 44085  97.2848  76.1611 0009326  84.0257 276.2054 15.42989571210739
LEMUR-2-ELHAM           
1 44086U 19018J   23011.88845924  .00076652  00000+0  14357-2 0  9993
2 44086  97.2935  78.4845 0007626  71.6082 288.5997 15.48383654210862
LEMUR-2-VICTOR-ANDREW   
1 44087U 19018K   23011.65593512  .00173055  00000+0  21401-2 0  9995
2 44087  97.2919  80.0290 0005372  73.1579 287.0266 15.59516017210947
